FLOCK 4G-6              
1 62660U 25009BD  26068.71061311  .00012261  00000+0  45910-3 0  9991
2 62660  97.3980 150.7943 0002380 348.2637  11.8546 15.27432125121307
STARLINK-36078          
1 67050U 25294W   26068.30866880  .00012880  00000+0  47667-3 0  9992
2 67050  43.0053  39.9878 0001366 280.7022  79.3676 15.27585363 14745
